<?xml version="1.0" encoding="UTF-8"?>
<gpx version="1.1" creator="Nyanga Trail Map tools" xmlns="http://www.topografix.com/GPX/1/1">
<metadata><name>Harare Prep</name><desc>Practice loop around Greendale and Highlands. Route planned along OpenStreetMap streets (© OpenStreetMap contributors).</desc></metadata>
<wpt lat="-17.794425" lon="31.113626"><name>Practice water 1</name><type>water</type></wpt>
<wpt lat="-17.800101" lon="31.101856"><name>Practice station</name><type>station</type></wpt>
<wpt lat="-17.809780" lon="31.098984"><name>Practice water 2</name><type>water</type></wpt>
<trk><name>Harare Prep</name><trkseg>
<trkpt lat="-17.810742" lon="31.112310"></trkpt>
<trkpt lat="-17.811023" lon="31.111621"></trkpt>
<trkpt lat="-17.811260" lon="31.111105"></trkpt>
<trkpt lat="-17.811202" lon="31.111047"></trkpt>
<trkpt lat="-17.811022" lon="31.110863"></trkpt>
<trkpt lat="-17.810488" lon="31.110217"></trkpt>
<trkpt lat="-17.809864" lon="31.109420"></trkpt>
<trkpt lat="-17.809130" lon="31.110106"></trkpt>
<trkpt lat="-17.808632" lon="31.110573"></trkpt>
<trkpt lat="-17.808215" lon="31.110941"></trkpt>
<trkpt lat="-17.808145" lon="31.110975"></trkpt>
<trkpt lat="-17.808073" lon="31.110991"></trkpt>
<trkpt lat="-17.807879" lon="31.111004"></trkpt>
<trkpt lat="-17.806226" lon="31.110959"></trkpt>
<trkpt lat="-17.806112" lon="31.110962"></trkpt>
<trkpt lat="-17.805436" lon="31.111589"></trkpt>
<trkpt lat="-17.805233" lon="31.111739"></trkpt>
<trkpt lat="-17.805139" lon="31.111745"></trkpt>
<trkpt lat="-17.803887" lon="31.111878"></trkpt>
<trkpt lat="-17.803050" lon="31.111936"></trkpt>
<trkpt lat="-17.802589" lon="31.111993"></trkpt>
<trkpt lat="-17.802445" lon="31.112064"></trkpt>
<trkpt lat="-17.802198" lon="31.112412"></trkpt>
<trkpt lat="-17.801820" lon="31.112883"></trkpt>
<trkpt lat="-17.801744" lon="31.112954"></trkpt>
<trkpt lat="-17.801655" lon="31.113008"></trkpt>
<trkpt lat="-17.800884" lon="31.113315"></trkpt>
<trkpt lat="-17.800354" lon="31.113511"></trkpt>
<trkpt lat="-17.800236" lon="31.113527"></trkpt>
<trkpt lat="-17.800153" lon="31.113524"></trkpt>
<trkpt lat="-17.800038" lon="31.113512"></trkpt>
<trkpt lat="-17.799920" lon="31.113465"></trkpt>
<trkpt lat="-17.799643" lon="31.113292"></trkpt>
<trkpt lat="-17.799579" lon="31.113235"></trkpt>
<trkpt lat="-17.799524" lon="31.113153"></trkpt>
<trkpt lat="-17.799495" lon="31.113070"></trkpt>
<trkpt lat="-17.799401" lon="31.112799"></trkpt>
<trkpt lat="-17.799199" lon="31.112212"></trkpt>
<trkpt lat="-17.799157" lon="31.112126"></trkpt>
<trkpt lat="-17.799125" lon="31.112082"></trkpt>
<trkpt lat="-17.799094" lon="31.112050"></trkpt>
<trkpt lat="-17.798669" lon="31.111819"></trkpt>
<trkpt lat="-17.798587" lon="31.111757"></trkpt>
<trkpt lat="-17.797019" lon="31.110790"></trkpt>
<trkpt lat="-17.796065" lon="31.111778"></trkpt>
<trkpt lat="-17.794754" lon="31.113205"></trkpt>
<trkpt lat="-17.794655" lon="31.113316"></trkpt>
<trkpt lat="-17.794592" lon="31.113400"></trkpt>
<trkpt lat="-17.794507" lon="31.113513"></trkpt>
<trkpt lat="-17.793913" lon="31.114333"></trkpt>
<trkpt lat="-17.793540" lon="31.114852"></trkpt>
<trkpt lat="-17.792804" lon="31.114113"></trkpt>
<trkpt lat="-17.792366" lon="31.113702"></trkpt>
<trkpt lat="-17.791855" lon="31.113194"></trkpt>
<trkpt lat="-17.791245" lon="31.112607"></trkpt>
<trkpt lat="-17.792327" lon="31.111587"></trkpt>
<trkpt lat="-17.792375" lon="31.111534"></trkpt>
<trkpt lat="-17.792413" lon="31.111488"></trkpt>
<trkpt lat="-17.792451" lon="31.111422"></trkpt>
<trkpt lat="-17.792879" lon="31.110618"></trkpt>
<trkpt lat="-17.793809" lon="31.108876"></trkpt>
<trkpt lat="-17.792670" lon="31.108175"></trkpt>
<trkpt lat="-17.793471" lon="31.106729"></trkpt>
<trkpt lat="-17.793523" lon="31.106689"></trkpt>
<trkpt lat="-17.793589" lon="31.106656"></trkpt>
<trkpt lat="-17.793648" lon="31.106639"></trkpt>
<trkpt lat="-17.793744" lon="31.106658"></trkpt>
<trkpt lat="-17.794159" lon="31.106881"></trkpt>
<trkpt lat="-17.794737" lon="31.105874"></trkpt>
<trkpt lat="-17.794698" lon="31.105833"></trkpt>
<trkpt lat="-17.794678" lon="31.105766"></trkpt>
<trkpt lat="-17.794660" lon="31.105618"></trkpt>
<trkpt lat="-17.794645" lon="31.105548"></trkpt>
<trkpt lat="-17.794560" lon="31.105380"></trkpt>
<trkpt lat="-17.794532" lon="31.105261"></trkpt>
<trkpt lat="-17.794540" lon="31.105210"></trkpt>
<trkpt lat="-17.794560" lon="31.105152"></trkpt>
<trkpt lat="-17.794734" lon="31.104867"></trkpt>
<trkpt lat="-17.794742" lon="31.104830"></trkpt>
<trkpt lat="-17.794719" lon="31.104800"></trkpt>
<trkpt lat="-17.794668" lon="31.104720"></trkpt>
<trkpt lat="-17.794634" lon="31.104653"></trkpt>
<trkpt lat="-17.794637" lon="31.104618"></trkpt>
<trkpt lat="-17.794900" lon="31.104197"></trkpt>
<trkpt lat="-17.795997" lon="31.104824"></trkpt>
<trkpt lat="-17.796847" lon="31.105310"></trkpt>
<trkpt lat="-17.798450" lon="31.103628"></trkpt>
<trkpt lat="-17.799959" lon="31.102004"></trkpt>
<trkpt lat="-17.800038" lon="31.101922"></trkpt>
<trkpt lat="-17.800386" lon="31.101559"></trkpt>
<trkpt lat="-17.801353" lon="31.100550"></trkpt>
<trkpt lat="-17.800776" lon="31.099923"></trkpt>
<trkpt lat="-17.800231" lon="31.099354"></trkpt>
<trkpt lat="-17.799619" lon="31.098725"></trkpt>
<trkpt lat="-17.799075" lon="31.098145"></trkpt>
<trkpt lat="-17.799421" lon="31.097239"></trkpt>
<trkpt lat="-17.799765" lon="31.096422"></trkpt>
<trkpt lat="-17.800080" lon="31.095631"></trkpt>
<trkpt lat="-17.800443" lon="31.094751"></trkpt>
<trkpt lat="-17.800735" lon="31.094055"></trkpt>
<trkpt lat="-17.800954" lon="31.093500"></trkpt>
<trkpt lat="-17.801082" lon="31.093209"></trkpt>
<trkpt lat="-17.801226" lon="31.092949"></trkpt>
<trkpt lat="-17.801575" lon="31.092365"></trkpt>
<trkpt lat="-17.802060" lon="31.091554"></trkpt>
<trkpt lat="-17.802981" lon="31.092640"></trkpt>
<trkpt lat="-17.803657" lon="31.093422"></trkpt>
<trkpt lat="-17.804313" lon="31.094180"></trkpt>
<trkpt lat="-17.804667" lon="31.094604"></trkpt>
<trkpt lat="-17.805081" lon="31.095109"></trkpt>
<trkpt lat="-17.805243" lon="31.095300"></trkpt>
<trkpt lat="-17.805702" lon="31.095798"></trkpt>
<trkpt lat="-17.805915" lon="31.095955"></trkpt>
<trkpt lat="-17.806139" lon="31.096127"></trkpt>
<trkpt lat="-17.806819" lon="31.096646"></trkpt>
<trkpt lat="-17.807496" lon="31.097217"></trkpt>
<trkpt lat="-17.808773" lon="31.098199"></trkpt>
<trkpt lat="-17.809022" lon="31.098400"></trkpt>
<trkpt lat="-17.809276" lon="31.098608"></trkpt>
<trkpt lat="-17.809667" lon="31.098890"></trkpt>
<trkpt lat="-17.810044" lon="31.099206"></trkpt>
<trkpt lat="-17.810214" lon="31.098962"></trkpt>
<trkpt lat="-17.810394" lon="31.098690"></trkpt>
<trkpt lat="-17.810534" lon="31.098478"></trkpt>
<trkpt lat="-17.810774" lon="31.098167"></trkpt>
<trkpt lat="-17.811014" lon="31.097840"></trkpt>
<trkpt lat="-17.811146" lon="31.097676"></trkpt>
<trkpt lat="-17.811184" lon="31.097639"></trkpt>
<trkpt lat="-17.811270" lon="31.097590"></trkpt>
<trkpt lat="-17.811607" lon="31.097471"></trkpt>
<trkpt lat="-17.811793" lon="31.097391"></trkpt>
<trkpt lat="-17.812120" lon="31.097250"></trkpt>
<trkpt lat="-17.812687" lon="31.096974"></trkpt>
<trkpt lat="-17.813444" lon="31.096558"></trkpt>
<trkpt lat="-17.813640" lon="31.096451"></trkpt>
<trkpt lat="-17.813682" lon="31.096428"></trkpt>
<trkpt lat="-17.815342" lon="31.095536"></trkpt>
<trkpt lat="-17.815672" lon="31.096360"></trkpt>
<trkpt lat="-17.815995" lon="31.097117"></trkpt>
<trkpt lat="-17.816245" lon="31.097652"></trkpt>
<trkpt lat="-17.815850" lon="31.097952"></trkpt>
<trkpt lat="-17.815509" lon="31.098256"></trkpt>
<trkpt lat="-17.815204" lon="31.098530"></trkpt>
<trkpt lat="-17.814935" lon="31.098768"></trkpt>
<trkpt lat="-17.815035" lon="31.099083"></trkpt>
<trkpt lat="-17.815178" lon="31.099575"></trkpt>
<trkpt lat="-17.815233" lon="31.099766"></trkpt>
<trkpt lat="-17.815409" lon="31.100437"></trkpt>
<trkpt lat="-17.815554" lon="31.100985"></trkpt>
<trkpt lat="-17.815852" lon="31.102093"></trkpt>
<trkpt lat="-17.815901" lon="31.102275"></trkpt>
<trkpt lat="-17.816220" lon="31.103516"></trkpt>
<trkpt lat="-17.815577" lon="31.103521"></trkpt>
<trkpt lat="-17.815115" lon="31.103529"></trkpt>
<trkpt lat="-17.814391" lon="31.103687"></trkpt>
<trkpt lat="-17.814206" lon="31.103706"></trkpt>
<trkpt lat="-17.813707" lon="31.103676"></trkpt>
<trkpt lat="-17.813376" lon="31.104002"></trkpt>
<trkpt lat="-17.811783" lon="31.105516"></trkpt>
<trkpt lat="-17.810258" lon="31.106947"></trkpt>
<trkpt lat="-17.809562" lon="31.107612"></trkpt>
<trkpt lat="-17.808885" lon="31.108283"></trkpt>
<trkpt lat="-17.809864" lon="31.109420"></trkpt>
<trkpt lat="-17.810488" lon="31.110217"></trkpt>
<trkpt lat="-17.811022" lon="31.110863"></trkpt>
<trkpt lat="-17.811202" lon="31.111047"></trkpt>
<trkpt lat="-17.811260" lon="31.111105"></trkpt>
<trkpt lat="-17.811023" lon="31.111621"></trkpt>
<trkpt lat="-17.810742" lon="31.112310"></trkpt>
</trkseg></trk>
</gpx>
